GLOBALSTAR M094         
1 39074U 13005C   24144.59144540 -.00000096  00000+0  42536-4 0  9998
2 39074  51.9965 288.3215 0000989 120.2288 239.8676 12.62266177523177
GLOBALSTAR M096         
1 39075U 13005D   24143.89191399 -.00000084  00000+0  11035-3 0  9991
2 39075  52.0092 338.6610 0001196 101.0393 259.0608 12.62265972522354
GLOBALSTAR M078         
1 39076U 13005E   24143.94515861 -.00000016  00000+0  49062-3 0  9998
2 39076  51.9887  63.5404 0001519  47.9004 312.1991 12.62275748520633
GLOBALSTAR M095         
1 39077U 13005F   24144.12917701 -.00000093  00000+0  58498-4 0  9998
2 39077  51.9815  60.3652 0001304  68.7327 291.3679 12.62266391520877
GLOBALSTAR M087         
1 52888U 22064A   24144.59971462 -.00000087  00000+0  78809-4 0  9994
2 52888  51.9762 294.1168 0008654 303.5011  56.5062 13.37574656 94239
